OBJECT_NAME,OBJECT_ID,EPOCH,MEAN_MOTION,ECCENTRICITY,INCLINATION,RA_OF_ASC_NODE,ARG_OF_PERICENTER,MEAN_ANOMALY,EPHEMERIS_TYPE,CLASSIFICATION_TYPE,NORAD_CAT_ID,ELEMENT_SET_NO,REV_AT_EPOCH,BSTAR,MEAN_MOTION_DOT,MEAN_MOTION_DDOT
DUBAISAT-1,2009-041B,2026-06-19T07:51:37.851552,14.75125326,.00115941,98.0055,303.5617,67.6524,292.5912,0,U,35682,999,90541,.93000659E-4,.577E-5,0
OCEANSAT-2,2009-051A,2026-06-19T21:59:03.048000,13.99663780,.0015425,98.2323,157.4953,227.7216,132.2643,0,U,35931,999,87971,-.9554E-4,-.177E-5,0
WORLDVIEW-2 (WV-2),2009-055A,2026-06-19T19:23:37.070880,14.37900104,.0003873,98.4737,244.2215,199.3281,160.7759,0,U,35946,999,87602,.41229E-4,.81E-6,0
SMOS,2009-059A,2026-06-19T11:35:21.088608,14.39773615,.00013232,98.4425,357.7841,88.1500,271.9840,0,U,36036,999,87378,.68385087E-4,.171E-5,0
YAOGAN-7,2009-069A,2026-06-19T15:52:21.853056,14.78011966,.0025424,98.0069,56.5131,34.0945,326.1892,0,U,36110,999,88999,.54461E-4,.342E-5,0
TANDEM-X,2010-030A,2026-06-19T11:55:50.861280,15.19151444,.0001891,97.4451,178.1721,87.7400,272.4051,0,U,36605,999,88699,.12414064E-4,.194E-5,0
CARTOSAT-2B,2010-035A,2026-06-19T20:14:35.803680,14.78664535,.0011432,97.9945,221.3767,175.0474,185.0852,0,U,36795,999,86024,.93329E-4,.632E-5,0
YAOGAN-10,2010-038A,2026-06-19T20:26:06.184608,14.85356735,.0001761,97.8972,194.2347,88.1299,14.5643,0,U,36834,999,85760,.17712E-3,.147E-4,0
COSMO-SKYMED 4,2010-060A,2026-06-19T19:21:32.356800,14.82156648,.0001436,97.8886,354.3679,85.5898,274.5479,0,U,37216,999,84495,.1105E-3,.828E-5,0
RESOURCESAT-2,2011-015A,2026-06-19T20:00:52.151616,14.21600283,.0010247,98.7644,238.2577,246.9142,113.0955,0,U,37387,999,78655,.52916E-4,.72E-6,0
HAIYANG-2A,2011-043A,2026-06-19T19:18:54.705312,13.74331458,.0005807,99.3393,173.4232,86.3962,273.7851,0,U,37781,999,74701,-.16614E-3,-.2E-5,0
RASAT,2011-044D,2026-06-19T20:23:59.995680,14.68168523,.002039,98.0577,262.2063,180.1984,318.2865,0,U,37791,999,79357,.85048E-4,.442E-5,0
SRMSAT,2011-058D,2026-06-19T08:38:13.672608,14.11575972,.00117441,19.9728,46.3158,227.6220,288.1945,0,U,37841,999,75812,.48474163E-4,.354E-5,0
PLEIADES 1A,2011-076F,2026-06-19T21:05:58.216992,14.58571926,.0001709,98.1974,245.9464,95.1966,16.2648,0,U,38012,999,77238,.309E-4,.98E-6,0
ZIYUAN 1-02C (ZY 1-02C),2011-079A,2026-06-19T20:53:46.938624,14.38216343,.0005365,98.4068,238.1233,307.3649,178.0419,0,U,38038,999,75959,.84647E-4,.214E-5,0
ARIRANG-3 (KOMPSAT-3),2012-025B,2026-06-19T20:07:14.581344,14.62208082,.0006743,98.1172,128.2525,102.7402,257.4554,0,U,38338,999,75173,.73767E-4,.325E-5,0
EXACTVIEW-1 (ADS-1B),2012-039C,2026-06-19T13:23:24.801216,14.24985146,.00112898,98.9781,288.0016,159.8104,200.3523,0,U,38709,999,72304,.57016868E-4,.87E-6,0
SPOT 6,2012-047A,2026-06-19T19:18:43.956288,14.58563746,.000152,98.2114,238.0833,93.0791,267.0583,0,U,38755,999,73343,.21745E-4,.55E-6,0
PLEIADES 1B,2012-068A,2026-06-19T19:45:58.927680,14.58561558,.0001672,98.1943,245.8392,91.4577,268.6814,0,U,39019,999,72123,.3085E-4,.98E-6,0
GOKTURK 2,2012-073A,2026-06-19T19:02:22.149888,14.75546297,.0001503,97.6815,8.0936,56.8159,303.3195,0,U,39030,999,72489,.11255E-3,.72E-5,0
LANDSAT 8,2013-008A,2026-06-19T20:09:54.659808,14.57096052,.0001352,98.2301,240.9440,93.8550,266.2803,0,U,39084,999,69828,.62629E-4,.237E-5,0
SARAL,2013-009A,2026-06-19T20:01:09.638976,14.32856480,.0000629,98.5558,357.3678,289.6456,70.4660,0,U,39086,999,69598,.36396E-4,.56E-6,0
GAOFEN-1,2013-018A,2026-06-19T20:11:42.082656,14.76539801,.0015692,97.9091,242.8557,256.9632,102.9826,0,U,39150,999,70863,.99909E-4,.647E-5,0
VNREDSAT 1,2013-021B,2026-06-19T21:21:01.771776,14.64858372,.0001705,97.9073,224.2025,88.1120,272.0279,0,U,39160,999,70068,.45591E-4,.198E-5,0
ARIRANG-5 (KOMPSAT-5),2013-042A,2026-06-19T19:50:07.238688,15.04495283,.0005432,97.6201,357.4899,114.3542,245.8251,0,U,39227,999,70425,.40624E-4,.508E-5,0
SKYSAT-A,2013-066C,2026-06-19T16:54:18.878688,15.12985941,.0019939,97.3811,220.0216,308.1910,51.7525,0,U,39418,999,68886,.12046E-3,.2071E-4,0
DUBAISAT-2,2013-066D,2026-06-19T20:29:16.548000,15.10197504,.001199,97.4569,160.9278,32.1162,328.0796,0,U,39419,999,68679,.22274E-3,.3581E-4,0
GPM-CORE,2014-009C,2026-06-19T19:10:59.690208,15.44619429,.0011729,64.9723,299.3784,252.5245,107.4614,0,U,39574,999,69821,.21095E-3,.9653E-4,0
SENTINEL-1A,2014-016A,2026-06-19T20:03:56.047968,14.59198676,.0001412,98.1777,178.3303,82.7039,277.4321,0,U,39634,999,65040,-.26382E-4,-.17E-5,0
KAZEOSAT 1,2014-024A,2026-06-19T19:07:47.526240,14.42080724,.0001309,98.3202,243.1795,74.8638,285.2696,0,U,39731,999,63893,.3073E-4,.58E-6,0
ALOS-2,2014-029A,2026-06-19T20:16:03.230976,14.79476609,.0001677,97.9222,267.9701,90.9592,269.1812,0,U,39766,999,65197,.18236E-3,.1311E-4,0
